start=new Date('2022-10-29T00:00:00.000Z').valueOf();
sats=[{"SITE":"AFETR","TIME_SYSTEM":"UTC","COUNTRY_CODE":"US","CENTER_NAME":"EARTH","OBJECT_NAME":"STARLINK-3591","MEAN_ELEMENT_THEORY":"SGP4","SEMIMAJOR_AXIS":"6917.870","LAUNCH_DATE":"2022-03-03","TLE_LINE1":"1 51870U 22022U   22301.79947257  .00000609  00000-0  56369-4 0  9995","FILE":"3637111","MEAN_MOTION_DOT":"0.00000609","RA_OF_ASC_NODE":"121.3435","APOAPSIS":"540.998","ELEMENT_SET_NO":"999","PERIAPSIS":"538.471","BSTAR":"0.00005636900000","INCLINATION":"53.2153","DECAY_DATE":null,"GP_ID":"216408696","TLE_LINE2":"2 51870  53.2153 121.3435 0001827  57.5721 302.5448 15.08843538 37793","MEAN_MOTION_DDOT":"0.0000000000000","ECCENTRICITY":"0.00018270","OBJECT_ID":"2022-022U","REF_FRAME":"TEME","RCS_SIZE":"LARGE","REV_AT_EPOCH":"3779","EPHEMERIS_TYPE":"0","EPOCH":"2022-10-28T19:11:14.430048","ARG_OF_PERICENTER":"57.5721","MEAN_ANOMALY":"302.5448","NORAD_CAT_ID":"51870","OBJECT_TYPE":"PAYLOAD","MEAN_MOTION":"15.08843538","CLASSIFICATION_TYPE":"U","PERIOD":"95.437"},{"PERIOD":"95.437","MEAN_MOTION":"15.08844661","CLASSIFICATION_TYPE":"U","OBJECT_TYPE":"PAYLOAD","ARG_OF_PERICENTER":"61.7154","NORAD_CAT_ID":"51871","MEAN_ANOMALY":"298.3999","EPOCH":"2022-10-28T18:55:20.421984","REV_AT_EPOCH":"3785","EPHEMERIS_TYPE":"0","RCS_SIZE":"LARGE","OBJECT_ID":"2022-022V","REF_FRAME":"TEME","ECCENTRICITY":"0.00015970","TLE_LINE2":"2 51871  53.2163 121.3932 0001597  61.7154 298.3999 15.08844661 37856","MEAN_MOTION_DDOT":"0.0000000000000","DECAY_DATE":null,"GP_ID":"216409947","ELEMENT_SET_NO":"999","PERIAPSIS":"538.626","INCLINATION":"53.2163","BSTAR":"0.00005036800000","APOAPSIS":"540.836","MEAN_MOTION_DOT":"0.00000514","RA_OF_ASC_NODE":"121.3932","TLE_LINE1":"1 51871U 22022V   22301.78843081  .00000514  00000-0  50368-4 0  9993","FILE":"3637111","LAUNCH_DATE":"2022-03-03","OBJECT_NAME":"STARLINK-3567","MEAN_ELEMENT_THEORY":"SGP4","SEMIMAJOR_AXIS":"6917.866","CENTER_NAME":"EARTH","COUNTRY_CODE":"US","SITE":"AFETR","TIME_SYSTEM":"UTC"},{"SITE":"AFETR","TIME_SYSTEM":"UTC","COUNTRY_CODE":"US","OBJECT_NAME":"STARLINK-3554","MEAN_ELEMENT_THEORY":"SGP4","SEMIMAJOR_AXIS":"6917.853","CENTER_NAME":"EARTH","APOAPSIS":"540.735","MEAN_MOTION_DOT":"0.00001509","RA_OF_ASC_NODE":"121.3616","TLE_LINE1":"1 51872U 22022W   22301.79578111  .00001509  00000-0  11286-3 0  9994","FILE":"3637111","LAUNCH_DATE":"2022-03-03","GP_ID":"216409697","DECAY_DATE":null,"ELEMENT_SET_NO":"999","PERIAPSIS":"538.701","BSTAR":"0.00011286000000","INCLINATION":"53.2171","RCS_SIZE":"LARGE","OBJECT_ID":"2022-022W","REF_FRAME":"TEME","ECCENTRICITY":"0.00014700","TLE_LINE2":"2 51872  53.2171 121.3616 0001470  63.2090 296.9052 15.08849036 37744","MEAN_MOTION_DDOT":"0.0000000000000","ARG_OF_PERICENTER":"63.2090","NORAD_CAT_ID":"51872","MEAN_ANOMALY":"296.9052","EPOCH":"2022-10-28T19:05:55.487904","EPHEMERIS_TYPE":"0","REV_AT_EPOCH":"3774","PERIOD":"95.437","CLASSIFICATION_TYPE":"U","MEAN_MOTION":"15.08849036","OBJECT_TYPE":"PAYLOAD"},{"OBJECT_TYPE":"PAYLOAD","CLASSIFICATION_TYPE":"U","MEAN_MOTION":"15.08848747","PERIOD":"95.437","EPHEMERIS_TYPE":"0","REV_AT_EPOCH":"3774","MEAN_ANOMALY":"297.3169","EPOCH":"2022-10-28T18:39:26.915904","NORAD_CAT_ID":"51873","ARG_OF_PERICENTER":"62.7991","TLE_LINE2":"2 51873  53.2182 121.4255 0001646  62.7991 297.3169 15.08848747 37748","MEAN_MOTION_DDOT":"0.0000000000000","ECCENTRICITY":"0.00016460","REF_FRAME":"TEME","OBJECT_ID":"2022-022X","RCS_SIZE":"LARGE","BSTAR":"0.00002737200000","INCLINATION":"53.2182","PERIAPSIS":"538.580","ELEMENT_SET_NO":"999","GP_ID":"216408946","DECAY_DATE":null,"LAUNCH_DATE":"2022-03-03","FILE":"3637111","TLE_LINE1":"1 51873U 22022X   22301.77739486  .00000148  00000-0  27372-4 0  9999","RA_OF_ASC_NODE":"121.4255","MEAN_MOTION_DOT":"0.00000148","APOAPSIS":"540.857","CENTER_NAME":"EARTH","SEMIMAJOR_AXIS":"6917.854","OBJECT_NAME":"STARLINK-3582","MEAN_ELEMENT_THEORY":"SGP4","COUNTRY_CODE":"US","TIME_SYSTEM":"UTC","SITE":"AFETR"},{"APOAPSIS":"540.833","RA_OF_ASC_NODE":"121.4010","MEAN_MOTION_DOT":"0.00001776","FILE":"3637111","TLE_LINE1":"1 51874U 22022Y   22301.78475395  .00001776  00000-0  12959-3 0  9999","LAUNCH_DATE":"2022-03-03","SEMIMAJOR_AXIS":"6917.842","OBJECT_NAME":"STARLINK-3574","MEAN_ELEMENT_THEORY":"SGP4","CENTER_NAME":"EARTH","COUNTRY_CODE":"US","TIME_SYSTEM":"UTC","SITE":"AFETR","PERIOD":"95.437","CLASSIFICATION_TYPE":"U","MEAN_MOTION":"15.08852409","OBJECT_TYPE":"PAYLOAD","ARG_OF_PERICENTER":"63.1743","EPOCH":"2022-10-28T18:50:02.741280","NORAD_CAT_ID":"51874","MEAN_ANOMALY":"296.9416","EPHEMERIS_TYPE":"0","REV_AT_EPOCH":"3773","RCS_SIZE":"LARGE","REF_FRAME":"TEME","OBJECT_ID":"2022-022Y","ECCENTRICITY":"0.00016270","MEAN_MOTION_DDOT":"0.0000000000000","TLE_LINE2":"2 51874  53.2169 121.4010 0001627  63.1743 296.9416 15.08852409 37731","GP_ID":"216409196","DECAY_DATE":null,"BSTAR":"0.00012959000000","INCLINATION":"53.2169","ELEMENT_SET_NO":"999","PERIAPSIS":"538.582"},{"MEAN_MOTION_DOT":"0.00007178","RA_OF_ASC_NODE":"121.4714","APOAPSIS":"540.861","LAUNCH_DATE":"2022-03-03","TLE_LINE1":"1 51875U 22022Z   22301.77099917  .00007178  00000-0  46886-3 0  9999","FILE":"3637111","MEAN_ELEMENT_THEORY":"SGP4","OBJECT_NAME":"STARLINK-3585","SEMIMAJOR_AXIS":"6917.932","CENTER_NAME":"EARTH","COUNTRY_CODE":"US","SITE":"AFETR","TIME_SYSTEM":"UTC","PERIOD":"95.439","OBJECT_TYPE":"PAYLOAD","MEAN_MOTION":"15.08823223","CLASSIFICATION_TYPE":"U","ARG_OF_PERICENTER":"58.4867","EPOCH":"2022-10-28T18:30:14.328288","NORAD_CAT_ID":"51875","MEAN_ANOMALY":"301.6275","EPHEMERIS_TYPE":"0","REV_AT_EPOCH":"3774","OBJECT_ID":"2022-022Z","REF_FRAME":"TEME","RCS_SIZE":"LARGE","MEAN_MOTION_DDOT":"0.0000000000000","TLE_LINE2":"2 51875  53.2191 121.4714 0001538  58.4867 301.6275 15.08823223 37743","ECCENTRICITY":"0.00015380","DECAY_DATE":null,"GP_ID":"216409448","PERIAPSIS":"538.733","ELEMENT_SET_NO":"999","INCLINATION":"53.2191","BSTAR":"0.00046886000000"},{"COUNTRY_CODE":"US","SITE":"AFETR","TIME_SYSTEM":"UTC","MEAN_MOTION_DOT":"0.00000829","RA_OF_ASC_NODE":"121.4076","APOAPSIS":"540.993","LAUNCH_DATE":"2022-03-03","TLE_LINE1":"1 51876U 22022AA  22301.78106725  .00000829  00000-0  70174-4 0  9991","FILE":"3637111","MEAN_ELEMENT_THEORY":"SGP4","OBJECT_NAME":"STARLINK-3583","SEMIMAJOR_AXIS":"6917.853","CENTER_NAME":"EARTH","OBJECT_ID":"2022-022AA","REF_FRAME":"TEME","RCS_SIZE":"LARGE","MEAN_MOTION_DDOT":"0.0000000000000","TLE_LINE2":"2 51876  53.2178 121.4076 0001842  49.5746 310.5406 15.08848872 37747","ECCENTRICITY":"0.00018420","GP_ID":"216410197","DECAY_DATE":null,"PERIAPSIS":"538.444","ELEMENT_SET_NO":"999","INCLINATION":"53.2178","BSTAR":"0.00007017400000","PERIOD":"95.437","OBJECT_TYPE":"PAYLOAD","MEAN_MOTION":"15.08848872","CLASSIFICATION_TYPE":"U","NORAD_CAT_ID":"51876","EPOCH":"2022-10-28T18:44:44.210400","ARG_OF_PERICENTER":"49.5746","MEAN_ANOMALY":"310.5406","EPHEMERIS_TYPE":"0","REV_AT_EPOCH":"3774"},{"OBJECT_TYPE":"PAYLOAD","MEAN_MOTION":"15.08850079","CLASSIFICATION_TYPE":"U","PERIOD":"95.437","REV_AT_EPOCH":"3787","EPHEMERIS_TYPE":"0","MEAN_ANOMALY":"296.5378","EPOCH":"2022-10-28T18:19:33.653280","ARG_OF_PERICENTER":"63.5765","NORAD_CAT_ID":"51877","MEAN_MOTION_DDOT":"0.0000000000000","TLE_LINE2":"2 51877  53.2168 111.4939 0001475  63.5765 296.5378 15.08850079 37870","ECCENTRICITY":"0.00014750","REF_FRAME":"TEME","OBJECT_ID":"2022-022AB","RCS_SIZE":"LARGE","INCLINATION":"53.2168","BSTAR":"-0.00003224600000","PERIAPSIS":"538.694","ELEMENT_SET_NO":"999","DECAY_DATE":null,"GP_ID":"216408447","LAUNCH_DATE":"2022-03-03","FILE":"3637111","TLE_LINE1":"1 51877U 22022AB  22301.76358395 -.00000801  00000-0 -32246-4 0  9992","RA_OF_ASC_NODE":"111.4939","MEAN_MOTION_DOT":"-0.00000801","APOAPSIS":"540.735","CENTER_NAME":"EARTH","SEMIMAJOR_AXIS":"6917.850","MEAN_ELEMENT_THEORY":"SGP4","OBJECT_NAME":"STARLINK-3556","COUNTRY_CODE":"US","TIME_SYSTEM":"UTC","SITE":"AFETR"},{"OBJECT_NAME":"STARLINK-3575","MEAN_ELEMENT_THEORY":"SGP4","SEMIMAJOR_AXIS":"6917.831","CENTER_NAME":"EARTH","APOAPSIS":"540.977","MEAN_MOTION_DOT":"0.00001304","RA_OF_ASC_NODE":"121.4564","TLE_LINE1":"1 51878U 22022AC  22301.77371294  .00001304  00000-0  99965-4 0  9995","FILE":"3637111","LAUNCH_DATE":"2022-03-03","SITE":"AFETR","TIME_SYSTEM":"UTC","COUNTRY_CODE":"US","ARG_OF_PERICENTER":"60.6984","EPOCH":"2022-10-28T18:34:08.798016","MEAN_ANOMALY":"299.4193","NORAD_CAT_ID":"51878","EPHEMERIS_TYPE":"0","REV_AT_EPOCH":"3774","PERIOD":"95.437","MEAN_MOTION":"15.08856057","CLASSIFICATION_TYPE":"U","OBJECT_TYPE":"PAYLOAD","DECAY_DATE":null,"GP_ID":"216408697","PERIAPSIS":"538.416","ELEMENT_SET_NO":"999","INCLINATION":"53.2184","BSTAR":"0.00009996500000","RCS_SIZE":"LARGE","OBJECT_ID":"2022-022AC","REF_FRAME":"TEME","ECCENTRICITY":"0.00018510","TLE_LINE2":"2 51878  53.2184 121.4564 0001851  60.6984 299.4193 15.08856057 37748","MEAN_MOTION_DDOT":"0.0000000000000"},{"TIME_SYSTEM":"UTC","SITE":"AFETR","COUNTRY_CODE":"US","SEMIMAJOR_AXIS":"6917.862","OBJECT_NAME":"STARLINK-3572","MEAN_ELEMENT_THEORY":"SGP4","CENTER_NAME":"EARTH","RA_OF_ASC_NODE":"111.5267","MEAN_MOTION_DOT":"0.00000718","APOAPSIS":"540.821","LAUNCH_DATE":"2022-03-03","FILE":"3637111","TLE_LINE1":"1 51879U 22022AD  22301.75622192  .00000718  00000-0  63194-4 0  9993","GP_ID":"216409948","DECAY_DATE":null,"BSTAR":"0.00006319400000","INCLINATION":"53.2164","ELEMENT_SET_NO":"999","PERIAPSIS":"538.632","REF_FRAME":"TEME","OBJECT_ID":"2022-022AD","RCS_SIZE":"LARGE","TLE_LINE2":"2 51879  53.2164 111.5267 0001582  61.3547 298.7605 15.08846137 37873","MEAN_MOTION_DDOT":"0.0000000000000","ECCENTRICITY":"0.00015820","EPOCH":"2022-10-28T18:08:57.573888","NORAD_CAT_ID":"51879","ARG_OF_PERICENTER":"61.3547","MEAN_ANOMALY":"298.7605","EPHEMERIS_TYPE":"0","REV_AT_EPOCH":"3787","PERIOD":"95.437","OBJECT_TYPE":"PAYLOAD","MEAN_MOTION":"15.08846137","CLASSIFICATION_TYPE":"U"}];
